TEVEL2-3                
1 63218U 25052J   26068.64540225  .00020365  00000+0  69446-3 0  9991
2 63218  97.3994 324.7775 0004761 105.7353 254.4413 15.30377031 54855
STARLINK-35973          
1 66632U 25271R   26068.47336867  .00024246  00000+0  82798-3 0  9990
2 66632  53.1577 140.9367 0000932  72.1712 287.9391 15.30203912 17493
